CTC2_L_00588007-03
1 58220U 24270RC  26037.47798611  .00000000  00000+0  00000-0 0  9992
2 58220  70.0000 180.0000 0000000   0.0000 144.0000  7.15312815    18
CTC2_L_00588007-04
1 58221U 22992MJ  26037.47798611  .00000000  00000+0  00000-0 0  9992
2 58221  70.0000 180.0000 0000000   0.0000 180.0000  7.15312815    19
CTC2_L_00588007-05
1 58222U 22335OQ  26037.47798611  .00000000  00000+0  00000-0 0  9994
2 58222  70.0000 180.0000 0000000   0.0000 216.0000  7.15312815    10
CTC2_L_00588007-06
1 58223U 26581BY  26037.47798611  .00000000  00000+0  00000-0 0  9992
2 58223  70.0000 180.0000 0000000   0.0000 252.0000  7.15312815    11
CTC2_L_00588007-07
1 58224U 23698GD  26037.47798611  .00000000  00000+0  00000-0 0  9999
2 58224  70.0000 180.0000 0000000   0.0000 288.0000  7.15312815    11
CTC2_L_00588007-08
1 58225U 23748LM  26037.47798611  .00000000  00000+0  00000-0 0  9996
2 58225  70.0000 180.0000 0000000   0.0000 324.0000  7.15312815    13
CTC2_L_00588007-09
1 58226U 24713QY  26037.47798611  .00000000  00000+0  00000-0 0  9990
2 58226  70.0000 180.0000 0000000   0.0000   0.0000  7.15312815    15
CTC2_L_00588007-10
1 58227U 22971NR  26037.47798611  .00000000  00000+0  00000-0 0  9995
2 58227  70.0000 180.0000 0000000   0.0000  36.0000  7.15312815    15
CTC2_L_00588008-01
1 58228U 23132FO  26037.47798611  .00000000  00000+0  00000-0 0  9996
2 58228  70.0000 210.0000 0000000   0.0000  84.0000  7.15312815    13
CTC2_L_00588008-02
1 58229U 25231GU  26037.47798611  .00000000  00000+0  00000-0 0  9999
2 58229  70.0000 210.0000 0000000   0.0000 120.0000  7.15312815    15
CTC2_L_00588008-03
1 58230U 22556FU  26037.47798611  .00000000  00000+0  00000-0 0  9998
2 58230  70.0000 210.0000 0000000   0.0000 156.0000  7.15312815    16
CTC2_L_00588008-04
1 58231U 23696DJ  26037.47798611  .00000000  00000+0  00000-0 0  9995
2 58231  70.0000 210.0000 0000000   0.0000 192.0000  7.15312815    17
CTC2_L_00588008-05
1 58232U 25553AK  26037.47798611  .00000000  00000+0  00000-0 0  9990
2 58232  70.0000 210.0000 0000000   0.0000 228.0000  7.15312815    18
CTC2_L_00588008-06
1 58233U 26980PA  26037.47798611  .00000000  00000+0  00000-0 0  9996
2 58233  70.0000 210.0000 0000000   0.0000 264.0000  7.15312815    19
CTC2_L_00588008-07
1 58234U 22256GZ  26037.47798611  .00000000  00000+0  00000-0 0  9999
2 58234  70.0000 210.0000 0000000   0.0000 300.0000  7.15312815    11
CTC2_L_00588008-08
1 58235U 25446WR  26037.47798611  .00000000  00000+0  00000-0 0  9994
2 58235  70.0000 210.0000 0000000   0.0000 336.0000  7.15312815    11
CTC2_L_00588008-09
1 58236U 23236KC  26037.47798611  .00000000  00000+0  00000-0 0  9990
2 58236  70.0000 210.0000 0000000   0.0000  12.0000  7.15312815    13
CTC2_L_00588008-10
1 58237U 22163QO  26037.47798611  .00000000  00000+0  00000-0 0  9999
2 58237  70.0000 210.0000 0000000   0.0000  48.0000  7.15312815    13
CTC2_L_00588009-01
1 58238U 22216IE  26037.47798611  .00000000  00000+0  00000-0 0  9999
2 58238  70.0000 240.0000 0000000   0.0000  96.0000  7.15312815    10
CTC2_L_00588009-02
1 58239U 26515PP  26037.47798611  .00000000  00000+0  00000-0 0  9996
2 58239  70.0000 240.0000 0000000   0.0000 132.0000  7.15312815    12
CTC2_L_00588009-03
1 58240U 23309FM  26037.47798611  .00000000  00000+0  00000-0 0  9996
2 58240  70.0000 240.0000 0000000   0.0000 168.0000  7.15312815    13
CTC2_L_00588009-04
1 58241U 25340QI  26037.47798611  .00000000  00000+0  00000-0 0  9994
2 58241  70.0000 240.0000 0000000   0.0000 204.0000  7.15312815    15
CTC2_L_00588009-05
1 58242U 23036LA  26037.47798611  .00000000  00000+0  00000-0 0  9995
2 58242  70.0000 240.0000 0000000   0.0000 240.0000  7.15312815    16
CTC2_L_00588009-06
1 58243U 22693VQ  26037.47798611  .00000000  00000+0  00000-0 0  9994
2 58243  70.0000 240.0000 0000000   0.0000 276.0000  7.15312815    16
CTC2_L_00588009-07
1 58244U 23199QK  26037.47798611  .00000000  00000+0  00000-0 0  9997
2 58244  70.0000 240.0000 0000000   0.0000 312.0000  7.15312815    18
CTC2_L_00588009-08
1 58245U 24428UV  26037.47798611  .00000000  00000+0  00000-0 0  9994
2 58245  70.0000 240.0000 0000000   0.0000 348.0000  7.15312815    18
CTC2_L_00588009-09
1 58246U 25834KB  26037.47798611  .00000000  00000+0  00000-0 0  9997
2 58246  70.0000 240.0000 0000000   0.0000  24.0000  7.15312815    10
CTC2_L_00588009-10
1 58247U 26943GI  26037.47798611  .00000000  00000+0  00000-0 0  9990
2 58247  70.0000 240.0000 0000000   0.0000  60.0000  7.15312815    11
CTC2_L_00588010-01
1 58248U 25609TF  26037.47798611  .00000000  00000+0  00000-0 0  9999
2 58248  70.0000 270.0000 0000000   0.0000 108.0000  7.15312815    18
CTC2_L_00588010-02
1 58249U 23382HZ  26037.47798611  .00000000  00000+0  00000-0 0  9996
2 58249  70.0000 270.0000 0000000   0.0000 144.0000  7.15312815    19
CTC2_L_00588010-03
1 58250U 24965GJ  26037.47798611  .00000000  00000+0  00000-0 0  9996
2 58250  70.0000 270.0000 0000000   0.0000 180.0000  7.15312815    11
CTC2_L_00588010-04
1 58251U 26546HA  26037.47798611  .00000000  00000+0  00000-0 0  9994
2 58251  70.0000 270.0000 0000000   0.0000 216.0000  7.15312815    12
CTC2_L_00588010-05
1 58252U 24089KQ  26037.47798611  .00000000  00000+0  00000-0 0  9995
2 58252  70.0000 270.0000 0000000   0.0000 252.0000  7.15312815    13
CTC2_L_00588010-06
1 58253U 22503DR  26037.47798611  .00000000  00000+0  00000-0 0  9995
2 58253  70.0000 270.0000 0000000   0.0000 288.0000  7.15312815    13
CTC2_L_00588010-07
1 58254U 23392V   26037.47798611  .00000000  00000+0  00000-0 0  9993
2 58254  70.0000 270.0000 0000000   0.0000 324.0000  7.15312815    15
CTC2_L_00588010-08
1 58255U 24090JH  26037.47798611  .00000000  00000+0  00000-0 0  9990
2 58255  70.0000 270.0000 0000000   0.0000   0.0000  7.15312815    17
CTC2_L_00588010-09
1 58256U 25170SF  26037.47798611  .00000000  00000+0  00000-0 0  9991
2 58256  70.0000 270.0000 0000000   0.0000  36.0000  7.15312815    17
CTC2_L_00588010-10
1 58257U 22209KQ  26037.47798611  .00000000  00000+0  00000-0 0  9992
2 58257  70.0000 270.0000 0000000   0.0000  72.0000  7.15312815    18
CTC2_L_00588011-01
1 58258U 22279OA  26037.47798611  .00000000  00000+0  00000-0 0  9990
2 58258  70.0000 300.0000 0000000   0.0000 120.0000  7.15312815    17
CTC2_L_00588011-02
1 58259U 22268MW  26037.47798611  .00000000  00000+0  00000-0 0  9999
2 58259  70.0000 300.0000 0000000   0.0000 156.0000  7.15312815    17
CTC2_L_00588011-03
1 58260U 26670TX  26037.47798611  .00000000  00000+0  00000-0 0  9992
2 58260  70.0000 300.0000 0000000   0.0000 192.0000  7.15312815    19
CTC2_L_00588011-04
1 58261U 23661LM  26037.47798611  .00000000  00000+0  00000-0 0  9990
2 58261  70.0000 300.0000 0000000   0.0000 228.0000  7.15312815    10
CTC2_L_00588011-05
1 58262U 26721VL  26037.47798611  .00000000  00000+0  00000-0 0  9991
2 58262  70.0000 300.0000 0000000   0.0000 264.0000  7.15312815    11
CTC2_L_00588011-06
1 58263U 22798SD  26037.47798611  .00000000  00000+0  00000-0 0  9992
2 58263  70.0000 300.0000 0000000   0.0000 300.0000  7.15312815    13
CTC2_L_00588011-07
1 58264U 25580UH  26037.47798611  .00000000  00000+0  00000-0 0  9995
2 58264  70.0000 300.0000 0000000   0.0000 336.0000  7.15312815    13
CTC2_L_00588011-08
1 58265U 26387JV  26037.47798611  .00000000  00000+0  00000-0 0  9992
2 58265  70.0000 300.0000 0000000   0.0000  12.0000  7.15312815    15
CTC2_L_00588011-09
1 58266U 26998AR  26037.47798611  .00000000  00000+0  00000-0 0  9991
2 58266  70.0000 300.0000 0000000   0.0000  48.0000  7.15312815    15
CTC2_L_00588011-10
1 58267U 24158LE  26037.47798611  .00000000  00000+0  00000-0 0  9998
2 58267  70.0000 300.0000 0000000   0.0000  84.0000  7.15312815    16
CTC2_L_00588012-01
1 58268U 26701TD  26037.47798611  .00000000  00000+0  00000-0 0  9995
2 58268  70.0000 330.0000 0000000   0.0000 132.0000  7.15312815    14
CTC2_L_00588012-02
1 58269U 26879IH  26037.47798611  .00000000  00000+0  00000-0 0  9992
2 58269  70.0000 330.0000 0000000   0.0000 168.0000  7.15312815    14
CTC2_L_00588012-03
1 58270U 22952ZT  26037.47798611  .00000000  00000+0  00000-0 0  9992
2 58270  70.0000 330.0000 0000000   0.0000 204.0000  7.15312815    17
CTC2_L_00588012-04
1 58271U 22888JQ  26037.47798611  .00000000  00000+0  00000-0 0  9991
2 58271  70.0000 330.0000 0000000   0.0000 240.0000  7.15312815    18
CTC2_L_00588012-05
1 58272U 23613VA  26037.47798611  .00000000  00000+0  00000-0 0  9999
2 58272  70.0000 330.0000 0000000   0.0000 276.0000  7.15312815    18
CTC2_L_00588012-06
1 58273U 25956IG  26037.47798611  .00000000  00000+0  00000-0 0  9992
2 58273  70.0000 330.0000 0000000   0.0000 312.0000  7.15312815    10
CTC2_L_00588012-07
1 58274U 25974BL  26037.47798611  .00000000  00000+0  00000-0 0  9993
2 58274  70.0000 330.0000 0000000   0.0000 348.0000  7.15312815    10
CTC2_L_00588012-08
1 58275U 26939SC  26037.47798611  .00000000  00000+0  00000-0 0  9996
2 58275  70.0000 330.0000 0000000   0.0000  24.0000  7.15312815    12
CTC2_L_00588012-09
1 58276U 25822YO  26037.47798611  .00000000  00000+0  00000-0 0  9997
2 58276  70.0000 330.0000 0000000   0.0000  60.0000  7.15312815    13
CTC2_L_00588012-10
1 58277U 25703EM  26037.47798611  .00000000  00000+0  00000-0 0  9996
2 58277  70.0000 330.0000 0000000   0.0000  96.0000  7.15312815    13
